GLOBALSTAR M084         
1 38040U 11080A   25362.45876646 -.00000078  00000+0  14649-3 0  9991
2 38040  51.9982 177.0412 0001375  93.1856 284.9960 12.62266968647206
GLOBALSTAR M080         
1 38041U 11080B   25361.79580523 -.00000085  00000+0  10618-3 0  9994
2 38041  52.0029 180.7186 0000685 106.9541 267.0330 12.62265242647248
GLOBALSTAR M082         
1 38042U 11080C   25362.36660753 -.00000095  00000+0  47620-4 0  9998
2 38042  52.0058 134.4627 0000676 121.1585 257.5981 12.62266358648026
GLOBALSTAR M092         
1 38043U 11080D   25362.57692103 -.00000083  00000+0  11588-3 0  9996
2 38043  52.0061 224.2125 0001014  77.9800 296.6393 12.62268868646507
GLOBALSTAR M090         
1 38044U 11080E   25362.62968634 -.00000099  00000+0  28695-4 0  9993
2 38044  52.0109 127.5634 0000780 102.5450 271.1233 12.62265500648172
GLOBALSTAR M086         
1 38045U 11080F   25362.65363690 -.00000088  00000+0  87813-4 0  9993
2 38045  51.9888 127.6982 0001497  61.8105 311.3676 12.62281510648124
GLOBALSTAR M097         
1 39072U 13005A   25362.52067306 -.00000098  00000+0  31419-4 0  9996
2 39072  52.0061  42.8592 0000325  91.2432 268.8472 12.62267692595355
GLOBALSTAR M093         
1 39073U 13005B   25362.41536434 -.00000102  00000+0  81955-5 0  9995
2 39073  52.0120  36.4627 0000216  47.5116 312.5769 12.62271236595290
